GLOBALSTAR M023 [+]     
1 25621U 99004A   23237.07828947 -.00000040  00000+0  35826-3 0  9991
2 25621  52.0094 269.4552 0010196 103.9354 274.1848 12.62448145132190
GLOBALSTAR M040 [-]     
1 25622U 99004B   23236.50901910 -.00000053  00000+0  28327-3 0  9993
2 25622  51.9905 274.3762 0000569  51.4088  93.4126 12.61952376131580
GLOBALSTAR M036 [-]     
1 25623U 99004C   23237.28531903 -.00000106  00000+0 -34723-3 0  9998
2 25623  51.9949 184.8672 0010650 226.5342 284.4108 11.86555156100381
GLOBALSTAR M038 [-]     
1 25624U 99004D   23237.02106208 -.00000073  00000+0  17798-3 0  9992
2 25624  51.9962 178.4543 0001849 101.2762 338.7200 12.32483078120684
GLOBALSTAR M022 [-]     
1 25649U 99012A   23236.33695135 -.00000084  00000+0  28605-4 0  9995
2 25649  52.0041 292.7842 0002289 298.9424 140.7903 12.02467947 96633
GLOBALSTAR M041 [-]     
1 25650U 99012B   23237.09091351 -.00000053  00000+0  41704-3 0  9991
2 25650  52.0011 151.9969 0002352  79.4736 280.6365 11.96645739 99264
GLOBALSTAR M046 [-]     
1 25651U 99012C   23237.43307994 -.00000097  00000+0 -91627-4 0  9992
2 25651  52.0035 264.0902 0002040  15.4522 121.8746 12.09376875103948
GLOBALSTAR M037 [+]     
1 25652U 99012D   23236.65601939 -.00000065  00000+0  21539-3 0  9990
2 25652  52.0015  41.6084 0002224 138.6853 347.3394 12.62382356127597
